     2.100          NAVIGATION                              RINEX VERSION / TYPE
fic2rin                                 10/01/2016 00:20:22 PGM / RUN BY / DATE
                                                            END OF HEADER
20 16  9 30 22  0  0.0  .438426155597D-03  .204636307899D-11  .000000000000D+00
     .900000000000D+02 -.452812500000D+02  .524557564214D-08  .401457911636D+00
    -.227615237236D-05  .467781396583D-02  .112820416689D-04  .515359411240D+04
     .511200000000D+06 -.186264514923D-07  .281946882597D+01  .260770320892D-07
     .926868471289D+00  .145593750000D+03  .144726862722D+01 -.841856495274D-08
    -.318227541169D-09  .100000000000D+01  .191600000000D+04  .000000000000D+00
     .240000000000D+01  .000000000000D+00 -.838190317154D-08  .900000000000D+02
     .504006000000D+06  .400000000000D+01
21 16  9 30 22  0  0.0 -.532448291779D-03 -.341060513165D-12  .000000000000D+00
     .970000000000D+02 -.391250000000D+02  .535986611708D-08 -.247334165208D+01
    -.209175050259D-05  .233284387505D-01  .248290598392D-05  .515381409454D+04
     .511200000000D+06  .283122062683D-06  .182945787869D+01  .109896063805D-06
     .937078439890D+00  .309687500000D+03 -.175432463123D+01 -.834356182855D-08
     .339299847486D-10  .100000000000D+01  .191600000000D+04  .000000000000D+00
     .340000000000D+01  .000000000000D+00 -.977888703346D-08  .970000000000D+02
     .504006000000D+06  .400000000000D+01
22 16  9 30 22  0  0.0  .231065787375D-03 -.102318153949D-10  .000000000000D+00
     .270000000000D+02 -.541875000000D+02  .535950895935D-08  .765013110941D+00
    -.274367630482D-05  .741445389576D-02  .115223228931D-04  .515372096062D+04
     .511200000000D+06 -.968575477600D-07  .287146014453D+01 -.223517417908D-07
     .923547694063D+00  .141531250000D+03 -.186076404324D+01 -.851464038323D-08
    -.297155234851D-09  .100000000000D+01  .191600000000D+04  .000000000000D+00
     .240000000000D+01  .000000000000D+00 -.176951289177D-07  .270000000000D+02
     .504006000000D+06  .400000000000D+01
23 16  9 30 22  0  0.0 -.191777013242D-03 -.136424205266D-11  .000000000000D+00
     .270000000000D+02  .804062500000D+02  .509092634323D-08  .418980908237D-02
     .423751771450D-05  .111294846283D-01  .778399407864D-05  .515360978889D+04
     .511200000000D+06  .186264514923D-08 -.233279430798D+01  .838190317154D-07
     .945515031399D+00  .218968750000D+03 -.252784361895D+01 -.854464163291D-08
     .344657213499D-09  .100000000000D+01  .191600000000D+04  .000000000000D+00
     .240000000000D+01  .000000000000D+00 -.200234353542D-07  .270000000000D+02
     .504006000000D+06  .400000000000D+01
24 16  9 30 22  0  0.0 -.239289365709D-04 -.568434188608D-12  .000000000000D+00
     .750000000000D+02 -.414062500000D+02  .527986278462D-08 -.539849520134D+00
    -.230036675930D-05  .471387605648D-02  .309757888317D-05  .515371954155D+04
     .511200000000D+06  .670552253723D-07 -.130726984668D+01  .540167093277D-07
     .947659038786D+00  .312593750000D+03  .393242285125D+00 -.867964725643D-08
    -.364658046614D-09  .100000000000D+01  .191600000000D+04  .000000000000D+00
     .240000000000D+01  .000000000000D+00  .232830643654D-08  .750000000000D+02
     .504006000000D+06  .400000000000D+01
25 16  9 30 22  0  0.0 -.255321618170D-03 -.693489710102D-11  .000000000000D+00
     .760000000000D+02 -.442187500000D+02  .367193866527D-08 -.265220929555D+01
    -.221282243729D-05  .560010434128D-02  .124573707581D-04  .515369933891D+04
     .511200000000D+06  .111758708954D-07 -.231463199863D+00 -.223517417908D-07
     .978520185122D+00  .146656250000D+03  .781723359996D+00 -.753531387607D-08
    -.244295890190D-09  .100000000000D+01  .191600000000D+04  .000000000000D+00
     .240000000000D+01  .000000000000D+00  .558793544769D-08  .760000000000D+02
     .504006000000D+06  .400000000000D+01
26 16  9 30 22  0  0.0 -.479085370898D-03 -.659383658785D-11  .000000000000D+00
     .660000000000D+02 -.538125000000D+02  .423981946264D-08 -.308304656965D+01
    -.276975333691D-05  .101457280107D-02  .120680779219D-04  .515359085655D+04
     .511200000000D+06 -.372529029846D-08 -.242654855252D+00  .111758708954D-07
     .960411149391D+00  .146500000000D+03 -.121422440498D+00 -.792175854447D-08
    -.299655338991D-09  .100000000000D+01  .191600000000D+04  .000000000000D+00
     .240000000000D+01  .000000000000D+00  .698491930962D-08  .660000000000D+02
     .504006000000D+06  .400000000000D+01
27 16  9 30 22  0  0.0  .145982485265D-03  .488853402203D-11  .000000000000D+00
     .720000000000D+02  .725312500000D+02  .421124684391D-08  .129366718819D+01
     .370107591152D-05  .382200756576D-02  .860169529915D-05  .515365294838D+04
     .511200000000D+06  .931322574615D-08  .808525419220D+00  .242143869400D-07
     .972583586022D+00  .218781250000D+03  .340119428688D+00 -.799211861811D-08
     .522521765129D-09  .100000000000D+01  .191600000000D+04  .000000000000D+00
     .240000000000D+01  .000000000000D+00  .186264514923D-08  .720000000000D+02
     .504006000000D+06  .400000000000D+01
28 16  9 30 22  0  0.0  .555934384465D-03  .295585778076D-11  .000000000000D+00
     .250000000000D+02 -.485000000000D+02  .339835584088D-08  .213929111125D+01
    -.255368649960D-05  .199050678639D-01  .121053308249D-04  .515363669205D+04
     .511200000000D+06  .312924385071D-06 -.155482052406D+00 -.188127160072D-06
     .989671218202D+00  .156375000000D+03 -.161105164839D+01 -.720494297194D-08
    -.194650965137D-09  .100000000000D+01  .191600000000D+04  .000000000000D+00
     .240000000000D+01  .000000000000D+00 -.107102096081D-07  .250000000000D+02
     .504006000000D+06  .400000000000D+01
29 16  9 30 22  0  0.0  .649256631732D-03 -.125055521494D-11  .000000000000D+00
     .550000000000D+02  .777812500000D+02  .412481467223D-08 -.299234960301D+01
     .406242907047D-05  .524016912095D-03  .754930078983D-05  .515373995209D+04
     .511200000000D+06  .409781932831D-07  .869006785781D+00  .186264514923D-07
     .978615500087D+00  .242906250000D+03  .904046975585D-01 -.796497463031D-08
     .598953520247D-09  .100000000000D+01  .191600000000D+04  .000000000000D+00
     .240000000000D+01  .000000000000D+00 -.102445483208D-07  .550000000000D+02
     .504006000000D+06  .400000000000D+01
30 16  9 30 22  0  0.0  .152444932610D-03  .147792889038D-11  .000000000000D+00
     .990000000000D+02 -.492500000000D+02  .508414034628D-08 -.149119225394D+01
    -.261887907982D-05  .240453064907D-02  .329874455929D-05  .515376284218D+04
     .511200000000D+06  .186264514923D-08 -.121553129845D+01 -.391155481339D-07
     .950398172950D+00  .310343750000D+03 -.312757516859D+01 -.853928426689D-08
    -.310370071016D-09  .100000000000D+01  .191600000000D+04  .000000000000D+00
     .340000000000D+01  .000000000000D+00  .372529029846D-08  .990000000000D+02
     .504006000000D+06  .400000000000D+01
31 16  9 30 22  0  0.0  .245045870543D-03 -.216004991671D-11  .000000000000D+00
     .960000000000D+02 -.443750000000D+02  .481341478376D-08 -.166959160124D+01
    -.229850411415D-05  .834251090419D-02  .356510281563D-05  .515355418015D+04
     .511200000000D+06 -.689178705215D-07 -.124797874684D+01 -.745058059692D-07
     .969403864819D+00  .317656250000D+03 -.377943955363D+00 -.843249410437D-08
    -.255724937684D-09  .100000000000D+01  .191600000000D+04  .000000000000D+00
     .240000000000D+01  .000000000000D+00 -.135041773319D-07  .960000000000D+02
     .504006000000D+06  .400000000000D+01
32 16  9 30 22  0  0.0 -.135831069201D-03 -.151203494170D-10  .000000000000D+00
     .520000000000D+02  .905625000000D+02  .471662503779D-08  .172113462757D+01
     .469572842121D-05  .631653820165D-03  .801868736744D-05  .515365113831D+04
     .511200000000D+06 -.204890966415D-07 -.233482716871D+01  .204890966415D-07
     .959167623673D+00  .224093750000D+03 -.235526787349D+01 -.820962767823D-08
     .459304846176D-09  .100000000000D+01  .191600000000D+04  .000000000000D+00
     .240000000000D+01  .000000000000D+00  .931322574615D-09  .520000000000D+02
     .504006000000D+06  .400000000000D+01
21 16  9 30 21 59 44.0 -.532447826117D-03 -.341060513165D-12  .000000000000D+00
     .200000000000D+01 -.391250000000D+02  .535950895935D-08 -.247567514978D+01
    -.209175050259D-05  .233284365386D-01  .248290598392D-05  .515381409073D+04
     .511184000000D+06  .283122062683D-06  .182945802937D+01  .109896063805D-06
     .937078467685D+00  .309687500000D+03 -.175432464294D+01 -.834356182855D-08
     .339299847486D-10  .100000000000D+01  .191600000000D+04  .000000000000D+00
     .240000000000D+01  .000000000000D+00 -.977888703346D-08  .200000000000D+01
     .504876000000D+06  .400000000000D+01
20 16  9 30 21 59 44.0  .438425689936D-03  .193267624127D-11  .000000000000D+00
     .400000000000D+01 -.452812500000D+02  .524557564214D-08  .399123031476D+00
    -.227615237236D-05  .467781268526D-02  .112820416689D-04  .515359411621D+04
     .511184000000D+06 -.186264514923D-07  .281946895178D+01  .260770320892D-07
     .926868477141D+00  .145593750000D+03  .144726963371D+01 -.841856495274D-08
    -.318227541169D-09  .100000000000D+01  .191600000000D+04  .000000000000D+00
     .240000000000D+01  .000000000000D+00 -.838190317154D-08  .400000000000D+01
     .508986000000D+06  .400000000000D+01
30 16  9 30 21 59 44.0  .152444001287D-03  .147792889038D-11  .000000000000D+00
     .600000000000D+01 -.492500000000D+02  .508414034628D-08 -.149352424191D+01
    -.261887907982D-05  .240452750586D-02  .329874455929D-05  .515376284599D+04
     .511184000000D+06  .186264514923D-08 -.121553114339D+01 -.391155481339D-07
     .950398178802D+00  .310343750000D+03 -.312757682900D+01 -.853928426689D-08
    -.310370071016D-09  .100000000000D+01  .191600000000D+04  .000000000000D+00
     .240000000000D+01  .000000000000D+00  .372529029846D-08  .600000000000D+01
     .510546000000D+06  .400000000000D+01
